ONEWEB-0309             
1 49095U 21075W   26197.02070353 -.00000034  00000+0 -12143-3 0  9999
2 49095  87.9146   0.1266 0002371  92.4889 267.6515 13.17650039237371
ONEWEB-0310             
1 49096U 21075X   26196.90078148 -.00000412  00000+0 -11808-2 0  9992
2 49096  87.8963 344.9696 0001873  97.1959 262.9383 13.12443371238950
ONEWEB-0311             
1 49097U 21075Y   26196.87558764  .00000061  00000+0  12341-3 0  9998
2 49097  87.9143   0.1557 0001736  79.0710 281.0617 13.17647588237403
ONEWEB-0312             
1 49098U 21075Z   26196.96671663  .00000018  00000+0  12226-4 0  9998
2 49098  87.9142   0.1479 0002047  83.9194 276.2171 13.17648415237391
ONEWEB-0313             
1 49099U 21075AA  26197.19943795 -.00000003  00000+0 -41595-4 0  9990
2 49099  87.9143   0.1064 0001833  89.4116 270.7226 13.17649681237419
ONEWEB-0314             
1 49100U 21075AB  26197.16582370 -.00000031  00000+0 -11185-3 0  9990
2 49100  87.9155   0.0890 0002060  82.7095 277.4271 13.17651071237382
ONEWEB-0315             
1 49101U 21075AC  26196.87368660  .00000276  00000+0  73205-3 0  9992
2 49101  87.8972 344.9414 0001581  85.7475 274.3834 13.12441796238932
ONEWEB-0316             
1 49102U 21075AD  26196.91614425 -.00000004  00000+0 -43766-4 0  9992
2 49102  87.9194 329.7427 0001952  99.0052 261.1301 13.18686511240990
ONEWEB-0317             
1 49103U 21075AE  26196.87707432  .00000217  00000+0  56740-3 0  9998
2 49103  87.8966 344.9644 0002466 107.9432 252.1965 13.12441847238953
ONEWEB-0318             
1 49104U 21075AF  26196.83675846 -.00000010  00000+0 -59190-4 0  9994
2 49104  87.9197 329.7607 0001796  92.6146 267.5192 13.18686628240946
ONEWEB-0319             
1 49105U 21075AG  26197.18101877 -.00000067  00000+0 -20505-3 0  9991
2 49105  87.9144   0.1000 0001522  80.6454 279.4850 13.17647380237425
ONEWEB-0323             
1 49106U 21075AH  26197.16339116  .00000230  00000+0  60402-3 0  9999
2 49106  87.8972 344.8893 0001642  79.1732 280.9582 13.12442237238358
ONEWEB-0329             
1 49107U 21075AJ  26196.96163764 -.00000204  00000+0 -55913-3 0  9995
2 49107  87.9146   0.1442 0001915  88.0238 272.1113 13.17648807237378
ONEWEB-0330             
1 49108U 21075AK  26197.19295525 -.00000015  00000+0 -72717-4 0  9995
2 49108  87.9147   0.1095 0002015  89.8385 270.2977 13.17646428237440
ONEWEB-0292             
1 49186U 21083A   26196.88450587 -.00000225  00000+0 -65227-3 0  9996
2 49186  87.8980 314.5267 0001813  96.8654 263.2681 13.13469655234694
ONEWEB-0303             
1 49187U 21083B   26196.90925299 -.00000021  00000+0 -85862-4 0  9999
2 49187  87.9194 329.7446 0001809  93.9870 266.1469 13.18684544233767
ONEWEB-0306             
1 49188U 21083C   26197.12677656 -.00000098  00000+0 -28165-3 0  9992
2 49188  87.9199 329.6906 0002113 101.3738 258.7631 13.18684324233831
ONEWEB-0307             
1 49189U 21083D   26197.25946438  .00000002  00000+0 -29672-4 0  9993
2 49189  87.8980 314.4498 0001905  96.3769 263.7577 13.13468291234746
ONEWEB-0320             
1 49190U 21083E   26196.84348889  .00000025  00000+0  31883-4 0  9996
2 49190  87.9187 329.7618 0001941  99.1749 260.9603 13.18687533233756
ONEWEB-0321             
1 49191U 21083F   26197.21589186  .00000028  00000+0  37525-4 0  9998
2 49191  87.9184 268.6501 0002168 103.8336 256.3038 13.20772874240668
ONEWEB-0322             
1 49192U 21083G   26197.25524576  .00000118  00000+0  28859-3 0  9994
2 49192  87.8978 314.4504 0002077 113.0314 247.1035 13.13470184234737
ONEWEB-0324             
1 49193U 21083H   26196.89240440 -.00000049  00000+0 -15788-3 0  9991
2 49193  87.9199 329.7428 0002077  95.5921 264.5448 13.18686501233788
ONEWEB-0325             
1 49194U 21083J   26196.89576633  .00000032  00000+0  47436-4 0  9994
2 49194  87.9189 329.7476 0001811  99.9921 260.1416 13.18687636233792
ONEWEB-0326             
1 49195U 21083K   26196.91109984 -.00000080  00000+0 -23625-3 0  9997
2 49195  87.9197 329.7446 0001691  93.4768 266.6558 13.18686206233782
ONEWEB-0327             
1 49196U 21083L   26196.91081958 -.00000055  00000+0 -17287-3 0  9997
2 49196  87.9189 329.7466 0001498  93.8468 266.2835 13.18686215233809
ONEWEB-0328             
1 49197U 21083M   26197.32126788  .00000314  00000+0  82570-3 0  9998
2 49197  87.8988 314.4132 0002059  97.5771 262.5593 13.13469761234721
ONEWEB-0331             
1 49198U 21083N   26197.13183329 -.00000023  00000+0 -90424-4 0  9999
2 49198  87.9200 329.6946 0001710  89.5913 270.5415 13.18684671233829
ONEWEB-0333             
1 49199U 21083P   26197.31618898  .00000369  00000+0  97642-3 0  9993
2 49199  87.8980 314.4380 0001872 100.4468 259.6872 13.13469934234739
ONEWEB-0334             
1 49200U 21083Q   26197.15443551  .00000064  00000+0  12645-3 0  9992
2 49200  87.9183 268.6732 0002537 116.8812 243.2581 13.20769730240617
ONEWEB-0335             
1 49201U 21083R   26197.31110894  .00000315  00000+0  82765-3 0  9991
2 49201  87.8976 314.4363 0001832  95.3574 264.7764 13.13468963234744
