OBJECT_NAME,OBJECT_ID,EPOCH,MEAN_MOTION,ECCENTRICITY,INCLINATION,RA_OF_ASC_NODE,ARG_OF_PERICENTER,MEAN_ANOMALY,EPHEMERIS_TYPE,CLASSIFICATION_TYPE,NORAD_CAT_ID,ELEMENT_SET_NO,REV_AT_EPOCH,BSTAR,MEAN_MOTION_DOT,MEAN_MOTION_DDOT
ONEWEB-0309,2021-075W,2026-07-16T00:29:48.784992,13.17650039,.00023716,87.9146,0.1266,92.4889,267.6515,0,U,49095,999,23737,-.12143171E-3,-.34E-6,0
ONEWEB-0310,2021-075X,2026-07-15T21:37:07.519872,13.12443371,.0001873,87.8963,344.9696,97.1959,262.9383,0,U,49096,999,23895,-.11808E-2,-.412E-5,0
ONEWEB-0311,2021-075Y,2026-07-15T21:00:50.772096,13.17647588,.0001736,87.9143,0.1557,79.0710,281.0617,0,U,49097,999,23740,.12341E-3,.61E-6,0
ONEWEB-0312,2021-075Z,2026-07-15T23:12:04.316832,13.17648415,.00020478,87.9142,0.1479,83.9194,276.2171,0,U,49098,999,23739,.12226475E-4,.18E-6,0
ONEWEB-0313,2021-075AA,2026-07-16T04:47:11.438880,13.17649681,.00018334,87.9143,0.1064,89.4116,270.7226,0,U,49099,999,23741,-.41595455E-4,-.3E-7,0
ONEWEB-0314,2021-075AB,2026-07-16T03:58:47.167680,13.17651071,.00020605,87.9155,0.0890,82.7095,277.4271,0,U,49100,999,23738,-.11184703E-3,-.31E-6,0
ONEWEB-0315,2021-075AC,2026-07-15T20:58:06.522240,13.12441796,.0001581,87.8972,344.9414,85.7475,274.3834,0,U,49101,999,23893,.73205E-3,.276E-5,0
ONEWEB-0316,2021-075AD,2026-07-15T21:59:14.863200,13.18686511,.0001952,87.9194,329.7427,99.0052,261.1301,0,U,49102,999,24099,-.43766E-4,-.4E-7,0
ONEWEB-0317,2021-075AE,2026-07-15T21:02:59.221248,13.12441847,.0002466,87.8966,344.9644,107.9432,252.1965,0,U,49103,999,23895,.5674E-3,.217E-5,0
ONEWEB-0318,2021-075AF,2026-07-15T20:04:55.930944,13.18686628,.00017969,87.9197,329.7607,92.6146,267.5192,0,U,49104,999,24094,-.59189536E-4,-.1E-6,0
ONEWEB-0319,2021-075AG,2026-07-16T04:20:40.021728,13.17647380,.00015229,87.9144,0.1000,80.6454,279.4850,0,U,49105,999,23742,-.20505469E-3,-.67E-6,0
ONEWEB-0323,2021-075AH,2026-07-16T03:55:16.996224,13.12442237,.00016428,87.8972,344.8893,79.1732,280.9582,0,U,49106,999,23835,.60401657E-3,.23E-5,0
ONEWEB-0329,2021-075AJ,2026-07-15T23:04:45.492096,13.17648807,.00019154,87.9146,0.1442,88.0238,272.1113,0,U,49107,999,23737,-.55912512E-3,-.204E-5,0
ONEWEB-0330,2021-075AK,2026-07-16T04:37:51.333600,13.17646428,.00020158,87.9147,0.1095,89.8385,270.2977,0,U,49108,999,23744,-.72716632E-4,-.15E-6,0
ONEWEB-0292,2021-083A,2026-07-15T21:13:41.307168,13.13469655,.0001813,87.8980,314.5267,96.8654,263.2681,0,U,49186,999,23469,-.65227E-3,-.225E-5,0
ONEWEB-0303,2021-083B,2026-07-15T21:49:19.458336,13.18684544,.0001809,87.9194,329.7446,93.9870,266.1469,0,U,49187,999,23376,-.85862E-4,-.21E-6,0
ONEWEB-0306,2021-083C,2026-07-16T03:02:33.494784,13.18684324,.00021139,87.9199,329.6906,101.3738,258.7631,0,U,49188,999,23383,-.28164675E-3,-.98E-6,0
ONEWEB-0307,2021-083D,2026-07-16T06:13:37.722432,13.13468291,.00019059,87.8980,314.4498,96.3769,263.7577,0,U,49189,999,23474,-.29672044E-4,.2E-7,0
ONEWEB-0320,2021-083E,2026-07-15T20:14:37.440096,13.18687533,.0001941,87.9187,329.7618,99.1749,260.9603,0,U,49190,999,23375,.31883E-4,.25E-6,0
ONEWEB-0321,2021-083F,2026-07-16T05:10:53.056704,13.20772874,.00021687,87.9184,268.6501,103.8336,256.3038,0,U,49191,999,24066,.37525425E-4,.28E-6,0
ONEWEB-0322,2021-083G,2026-07-16T06:07:33.233664,13.13470184,.00020779,87.8978,314.4504,113.0314,247.1035,0,U,49192,999,23473,.28858629E-3,.118E-5,0
ONEWEB-0324,2021-083H,2026-07-15T21:25:03.740160,13.18686501,.0002077,87.9199,329.7428,95.5921,264.5448,0,U,49193,999,23378,-.15788E-3,-.49E-6,0
ONEWEB-0325,2021-083J,2026-07-15T21:29:54.210912,13.18687636,.0001811,87.9189,329.7476,99.9921,260.1416,0,U,49194,999,23379,.47436E-4,.32E-6,0
ONEWEB-0326,2021-083K,2026-07-15T21:51:59.026176,13.18686206,.0001691,87.9197,329.7446,93.4768,266.6558,0,U,49195,999,23378,-.23625E-3,-.8E-6,0
ONEWEB-0327,2021-083L,2026-07-15T21:51:34.811712,13.18686215,.0001498,87.9189,329.7466,93.8468,266.2835,0,U,49196,999,23380,-.17287E-3,-.55E-6,0
ONEWEB-0328,2021-083M,2026-07-16T07:42:37.544832,13.13469761,.0002059,87.8988,314.4132,97.5771,262.5593,0,U,49197,999,23472,.82569915E-3,.314E-5,0
ONEWEB-0331,2021-083N,2026-07-16T03:09:50.396256,13.18684671,.00017104,87.9200,329.6946,89.5913,270.5415,0,U,49198,999,23382,-.90424491E-4,-.23E-6,0
ONEWEB-0333,2021-083P,2026-07-16T07:35:18.727872,13.13469934,.00018726,87.8980,314.4380,100.4468,259.6872,0,U,49199,999,23473,.9764247E-3,.369E-5,0
ONEWEB-0334,2021-083Q,2026-07-16T03:42:23.228064,13.20769730,.00025376,87.9183,268.6732,116.8812,243.2581,0,U,49200,999,24061,.12644911E-3,.64E-6,0
ONEWEB-0335,2021-083R,2026-07-16T07:27:59.812416,13.13468963,.00018323,87.8976,314.4363,95.3574,264.7764,0,U,49201,999,23474,.82764934E-3,.315E-5,0
